#aV2014  1  5  0  0  0.00000000     288 DD+AD WGS84 FIT  NGA
## 1774      0.00000000   300.00000000 56662 0.0000000000000
+   31     1  2  3  4  5  6  7  8  9 10 11 12 13 14 15 16 17
+         18 19 20 21 22 23 24 25 26 27 28 29 31 32  0  0  0
+          0  0  0  0  0  0  0  0  0  0  0  0  0  0  0  0  0
+          0  0  0  0  0  0  0  0  0  0  0  0  0  0  0  0  0
+          0  0  0  0  0  0  0  0  0  0  0  0  0  0  0  0  0
++         2  2  2  2  2  2  2  2  2  2  2  2  2  2  2  2  2
++         2  2  2  2  2  2  2  2  2  2  2  2  2  2  0  0  0
++         0  0  0  0  0  0  0  0  0  0  0  0  0  0  0  0  0
++         0  0  0  0  0  0  0  0  0  0  0  0  0  0  0  0  0
++         0  0  0  0  0  0  0  0  0  0  0  0  0  0  0  0  0
%c cc cc ccc ccc cccc cccc cccc cccc ccccc ccccc ccccc ccccc
%c cc cc ccc ccc cccc cccc cccc cccc ccccc ccccc ccccc ccccc
%f  0.0000000  0.000000000  0.00000000000  0.000000000000000
%f  0.0000000  0.000000000  0.00000000000  0.000000000000000
%i    0    0    0    0      0      0      0      0         0
%i    0    0    0    0      0      0      0      0         0
/*      NGA, ST. LOUIS,MO.                                  
/*   EPHEMERIS COMPUTED FROM  1 DAYS OF DATA                
/*   EPOCHA SMOOTHER                                       
/* CCCCCCCCCCCCCCCCCCCCCCCCCCCCCCCCCCCCCCCCCCCCCCCCCCCCCCCCC
*  2014  1  5 22 25  0.00000000
P  1 -15973.870731   -341.676272  21200.308561     98.526966                    
V  1  -8984.712190 -25447.433782  -7054.620585      0.026002                    
P  2  14537.851369  21183.649078  -7453.559908    471.074267                    
V  2    959.638235  10075.991627  29016.807559      0.021852                    
P  3 -22511.050279  -8846.388542 -11705.728354    308.585660                    
V  3  14069.692120  -2581.568441 -26157.056475      0.049107                    
P  4   5341.126562  25183.296221   5677.652674      4.749822                    
V  4  -6200.336208  -5819.909727  30270.183099      0.002041                    
P  5  11734.620081  10176.531998 -21584.919708   -393.295292                    
V  5 -17300.431673  21197.810338    746.649215      0.011798                    
P  6 -16726.406240 -13214.072482 -16035.213363    223.703858                    
V  6  20448.529979   -133.893562 -20755.803871      0.157074                    
P  7  -8880.358119  15101.905126 -19793.113901    299.523018                    
V  7  -9637.150872 -23472.720982 -13849.806972      0.041712                    
P  8  -2338.021178  23073.976580 -12217.441705     11.085667                    
V  8  -5666.895347 -14989.977128 -27492.619706      0.002957                    
P  9   -178.791935  23480.375698 -12791.083780    295.884384                    
V  9  -7064.980157 -13805.724095 -26485.774302      0.028390                    
P 10  -4450.314415  21776.464546 -14546.046377   -108.827861                    
V 10 -13723.611364  12154.583338  23338.863532     -0.015153                    
P 11 -20724.567217  -6573.224531  14917.830253   -453.079498                    
V 11  -9780.956263 -17711.017547 -20503.879964     -0.032708                    
P 12  19871.194052  -6354.674752  16260.814544    178.434264                    
V 12 -12549.783089  16618.130238  21971.162002      0.023327                    
P 13 -18919.975762   7047.239683 -17465.458906     42.795085                    
V 13 -20738.528888  -6884.792103  19699.995267     -0.038145                    
P 14   1097.620037 -15167.912620  21997.678289    205.571382                    
V 14  26671.448364   6165.823032   2811.321491     -0.012171                    
P 15  26448.305663   3749.135990   -563.623695   -156.070350                    
V 15  -1064.414195   3166.961238 -31055.439699     -0.020298                    
P 16 -10972.614651  -9721.889749 -22178.915908   -236.408968                    
V 16  18945.867038 -20633.529674      6.581346      0.013332                    
P 17   -278.774482  15355.138562  21928.720913    -56.598963                    
V 17 -26707.338575  -5290.690036   3168.064860     -0.034466                    
P 18  16320.471256 -20718.433841    348.341801    294.454185                    
V 18   3255.004869   2679.755212 -31175.616678      0.021772                    
P 19 -25804.947268  -7202.510640   -773.658037   -430.278931                    
V 19   1375.570690  -2039.953896 -31540.860521     -0.025555                    
P 20 -20100.995124  10105.182946  13866.277360    150.543402                    
V 20   8072.935278 -16427.267219  23429.945553      0.031527                    
P 21   7724.736257 -17096.337976 -18008.652918   -336.576565                    
V 21  10967.251339  21895.855536 -16053.705959     -0.020930                    
P 22   7960.959301 -22907.890144  10848.783372    205.103767                    
V 22  11276.181614  -8402.120820 -26650.780682      0.024787                    
P 23 -25598.995888   1116.757162  -7646.970082     15.204230                    
V 23  -9169.874672  -4160.687412  29322.417679     -0.033102                    
P 24  17005.737384   5417.420714  19688.282252    -21.059148                    
V 24   8035.047505  23702.126452 -13379.632106     -0.006316                    
P 25  19137.520527 -17320.808839   5941.753799      7.253326                    
V 25  -2928.707184   7438.558972  30940.315803      0.024167                    
P 26  20178.857105  13494.628844 -11790.594469    202.127323                    
V 26 -13783.515349  -1980.877947 -27075.202258     -0.104857                    
P 27 -19281.603119 -12470.400287 -13375.157419    -12.793471                    
V 27  17094.826468    497.305897 -25088.049716     -0.022708                    
P 28 -11482.401198  22037.029727   9756.432376    322.330436                    
V 28  -9148.782633   7262.015943 -29126.470168      0.029328                    
P 29  21359.545828  -5740.822886 -14636.338115    501.024132                    
V 29  17840.901810   5798.424720  23729.769082      0.029568                    
P 31  -6544.990248 -25378.247991   3289.700699    332.026135                    
V 31   3629.037445   2965.333599  32003.769543      0.004988                    
P 32 -17143.301259  -2930.961618  19996.855246   -506.094869                    
V 32  16614.305262 -19305.456028  11996.019438      0.055532                    
EOF
